{"fetched_at":"2026-03-29T16:36:15Z","count":15609,"tles":[{"name":"STARLINK-34890","line1":"1 65760U 25216AC  26087.85181773  .00019874  00000+0  68105-3 0  9994","line2":"2 65760  53.1568 243.4370 0001107  84.7123 275.4004 15.30212972 29477","category":"Starlink"}]}